{
  "type": "FeatureCollection",
  "features": [
    {
      "type": "Feature",
      "properties": {
        "norad_id": 43647,
        "name": "BEIDOU-3 M16 (C35)",
        "group": "gnss",
        "lat": 2.8661197181852085,
        "lon": -51.48884773631631,
        "alt_km": 21508.483168645133,
        "timestamp": "2025-12-14T07:33:19.719816+00:00",
        "meta_object_name": "BEIDOU-3 M16 (C35)",
        "meta_object_id": "2018-078A",
        "meta_epoch": "2025-12-13T05:39:20.780352",
        "meta_mean_motion": 1.8623234,
        "meta_eccentricity": 0.00072054,
        "meta_inclination": 54.2615,
        "meta_ra_of_asc_node": 306.5038,
        "meta_arg_of_pericenter": 19.3609,
        "meta_mean_anomaly": 340.6562,
        "meta_ephemeris_type": 0,
        "meta_classification_type": "U",
        "meta_norad_cat_id": 43647,
        "meta_element_set_no": 999,
        "meta_rev_at_epoch": 4869,
        "meta_bstar": 0,
        "meta_mean_motion_dot": -9.7e-07,
        "meta_mean_motion_ddot": 0,
        "tle_line1": "1 43647U 18078A   25347.23565718 -.00000097  00000+0  00000+0 0  9991",
        "tle_line2": "2 43647  54.2615 306.5038 0007205  19.3609 340.6562  1.86232340 48698"
      },
      "geometry": {
        "type": "Point",
        "coordinates": [
          -51.48884773631631,
          2.8661197181852085
        ]
      }
    },
    {
      "type": "Feature",
      "properties": {
        "norad_id": 43648,
        "name": "BEIDOU-3 M15 (C34)",
        "group": "gnss",
        "lat": -53.687835252781596,
        "lon": -131.88517631136813,
        "alt_km": 21535.707620910303,
        "timestamp": "2025-12-14T07:33:19.719836+00:00",
        "meta_object_name": "BEIDOU-3 M15 (C34)",
        "meta_object_id": "2018-078B",
        "meta_epoch": "2025-12-13T08:45:25.915392",
        "meta_mean_motion": 1.86231906,
        "meta_eccentricity": 0.00036695,
        "meta_inclination": 54.2569,
        "meta_ra_of_asc_node": 306.4994,
        "meta_arg_of_pericenter": 18.0658,
        "meta_mean_anomaly": 341.9369,
        "meta_ephemeris_type": 0,
        "meta_classification_type": "U",
        "meta_norad_cat_id": 43648,
        "meta_element_set_no": 999,
        "meta_rev_at_epoch": 4871,
        "meta_bstar": 0,
        "meta_mean_motion_dot": -9.7e-07,
        "meta_mean_motion_ddot": 0,
        "tle_line1": "1 43648U 18078B   25347.36488328 -.00000097  00000+0  00000+0 0  9997",
        "tle_line2": "2 43648  54.2569 306.4994 0003669  18.0658 341.9369  1.86231906 48716"
      },
      "geometry": {
        "type": "Point",
        "coordinates": [
          -131.88517631136813,
          -53.687835252781596
        ]
      }
    },
    {
      "type": "Feature",
      "properties": {
        "norad_id": 43683,
        "name": "BEIDOU-3 G1 (C59)",
        "group": "gnss",
        "lat": -2.105271311769635,
        "lon": -23.40069467803908,
        "alt_km": 35793.74173437761,
        "timestamp": "2025-12-14T07:33:19.719857+00:00",
        "meta_object_name": "BEIDOU-3 G1 (C59)",
        "meta_object_id": "2018-085A",
        "meta_epoch": "2025-12-13T15:49:37.101216",
        "meta_mean_motion": 1.00270541,
        "meta_eccentricity": 0.00016664,
        "meta_inclination": 2.6102,
        "meta_ra_of_asc_node": 102.947,
        "meta_arg_of_pericenter": 59.2354,
        "meta_mean_anomaly": 297.8776,
        "meta_ephemeris_type": 0,
        "meta_classification_type": "U",
        "meta_norad_cat_id": 43683,
        "meta_element_set_no": 999,
        "meta_rev_at_epoch": 2619,
        "meta_bstar": 0,
        "meta_mean_motion_dot": -2.62e-06,
        "meta_mean_motion_ddot": 0,
        "tle_line1": "1 43683U 18085A   25347.65945719 -.00000262  00000+0  00000+0 0  9992",
        "tle_line2": "2 43683   2.6102 102.9470 0001666  59.2354 297.8776  1.00270541 26191"
      },
      "geometry": {
        "type": "Point",
        "coordinates": [
          -23.40069467803908,
          -2.105271311769635
        ]
      }
    },
    {
      "type": "Feature",
      "properties": {
        "norad_id": 43687,
        "name": "COSMOS 2529 (757)",
        "group": "gnss",
        "lat": 14.90583723815723,
        "lon": -153.794738577122,
        "alt_km": 19138.325338874227,
        "timestamp": "2025-12-14T07:33:19.719879+00:00",
        "meta_object_name": "COSMOS 2529 (757)",
        "meta_object_id": "2018-086A",
        "meta_epoch": "2025-12-11T22:43:29.696736",
        "meta_mean_motion": 2.1310189,
        "meta_eccentricity": 0.00071924,
        "meta_inclination": 64.292,
        "meta_ra_of_asc_node": 198.9152,
        "meta_arg_of_pericenter": 254.1119,
        "meta_mean_anomaly": 105.8792,
        "meta_ephemeris_type": 0,
        "meta_classification_type": "U",
        "meta_norad_cat_id": 43687,
        "meta_element_set_no": 999,
        "meta_rev_at_epoch": 5529,
        "meta_bstar": 0,
        "meta_mean_motion_dot": 6.1e-07,
        "meta_mean_motion_ddot": 0,
        "tle_line1": "1 43687U 18086A   25345.94687149  .00000061  00000+0  00000+0 0  9993",
        "tle_line2": "2 43687  64.2920 198.9152 0007192 254.1119 105.8792  2.13101890 55298"
      },
      "geometry": {
        "type": "Point",
        "coordinates": [
          -153.794738577122,
          14.90583723815723
        ]
      }
    },
    {
      "type": "Feature",
      "properties": {
        "norad_id": 43706,
        "name": "BEIDOU-3 M17 (C36)",
        "group": "gnss",
        "lat": 7.676556414181919,
        "lon": 2.9855804889497133,
        "alt_km": 21540.22595277488,
        "timestamp": "2025-12-14T07:33:19.719898+00:00",
        "meta_object_name": "BEIDOU-3 M17 (C36)",
        "meta_object_id": "2018-093A",
        "meta_epoch": "2025-12-12T04:17:11.485824",
        "meta_mean_motion": 1.86228421,
        "meta_eccentricity": 0.00062217,
        "meta_inclination": 54.1726,
        "meta_ra_of_asc_node": 188.6407,
        "meta_arg_of_pericenter": 307.45,
        "meta_mean_anomaly": 230.9206,
        "meta_ephemeris_type": 0,
        "meta_classification_type": "U",
        "meta_norad_cat_id": 43706,
        "meta_element_set_no": 999,
        "meta_rev_at_epoch": 4805,
        "meta_bstar": 0,
        "meta_mean_motion_dot": 7.8e-07,
        "meta_mean_motion_ddot": 0,
        "tle_line1": "1 43706U 18093A   25346.17860516  .00000078  00000+0  00000+0 0  9998",
        "tle_line2": "2 43706  54.1726 188.6407 0006221 307.4500 230.9206  1.86228421 48054"
      },
      "geometry": {
        "type": "Point",
        "coordinates": [
          2.9855804889497133,
          7.676556414181919
        ]
      }
    },
    {
      "type": "Feature",
      "properties": {
        "norad_id": 43707,
        "name": "BEIDOU-3 M18 (C37)",
        "group": "gnss",
        "lat": -53.62052608567493,
        "lon": 87.30263220478375,
        "alt_km": 21534.16355421864,
        "timestamp": "2025-12-14T07:33:19.719919+00:00",
        "meta_object_name": "BEIDOU-3 M18 (C37)",
        "meta_object_id": "2018-093B",
        "meta_epoch": "2025-12-12T20:21:07.427232",
        "meta_mean_motion": 1.86226583,
        "meta_eccentricity": 0.00063344,
        "meta_inclination": 54.1732,
        "meta_ra_of_asc_node": 188.6097,
        "meta_arg_of_pericenter": 352.9631,
        "meta_mean_anomaly": 7.0898,
        "meta_ephemeris_type": 0,
        "meta_classification_type": "U",
        "meta_norad_cat_id": 43707,
        "meta_element_set_no": 999,
        "meta_rev_at_epoch": 4806,
        "meta_bstar": 0,
        "meta_mean_motion_dot": 8.8e-07,
        "meta_mean_motion_ddot": 0,
        "tle_line1": "1 43707U 18093B   25346.84800263  .00000088  00000+0  00000+0 0  9997",
        "tle_line2": "2 43707  54.1732 188.6097 0006334 352.9631   7.0898  1.86226583 48060"
      },
      "geometry": {
        "type": "Point",
        "coordinates": [
          87.30263220478375,
          -53.62052608567493
        ]
      }
    },
    {
      "type": "Feature",
      "properties": {
        "norad_id": 43873,
        "name": "GPS BIII-1  (PRN 04)",
        "group": "gnss",
        "lat": -16.99524319160293,
        "lon": -68.43383784801505,
        "alt_km": 20086.838513680537,
        "timestamp": "2025-12-14T07:33:19.719940+00:00",
        "meta_object_name": "GPS BIII-1  (PRN 04)",
        "meta_object_id": "2018-109A",
        "meta_epoch": "2025-12-12T07:06:10.304640",
        "meta_mean_motion": 2.00553613,
        "meta_eccentricity": 0.0037314,
        "meta_inclination": 55.5671,
        "meta_ra_of_asc_node": 99.5642,
        "meta_arg_of_pericenter": 194.9554,
        "meta_mean_anomaly": 348.038,
        "meta_ephemeris_type": 0,
        "meta_classification_type": "U",
        "meta_norad_cat_id": 43873,
        "meta_element_set_no": 999,
        "meta_rev_at_epoch": 5132,
        "meta_bstar": 0,
        "meta_mean_motion_dot": -2e-08,
        "meta_mean_motion_ddot": 0,
        "tle_line1": "1 43873U 18109A   25346.29595260 -.00000002  00000+0  00000+0 0  9993",
        "tle_line2": "2 43873  55.5671  99.5642 0037314 194.9554 348.0380  2.00553613 51328"
      },
      "geometry": {
        "type": "Point",
        "coordinates": [
          -68.43383784801505,
          -16.99524319160293
        ]
      }
    }
  ]
}